{
  "value": {
    "total": 39,
    "size": 39,
    "language": "en",
    "data": [
      {
        "address": "Via Tomaso Gar, 14, 38122 Trento",
        "osm_tags": {}
      },
      {
        "address": "Via Giuseppe Verdi, 7 38122 Trento TN",
        "osm_tags": {}
      },
      {
        "address": "Via Calepina, 14, Trento, 38122 TN",
        "osm_tags": {}
      },
      {
        "address": "Via Tomaso Gar, 14, Trento, TN",
        "osm_tags": {}
      },
      {
        "address": "Via di Briamasco, 2, Trento, TN",
        "osm_tags": {
          "addr:city": "Trento",
          "addr:housenumber": "2",
          "addr:postcode": "38122",
          "addr:street": "Via di Briamasco",
          "alt_name": "Trento Fiere",
          "amenity": "exhibition_centre",
          "building": "yes",
          "name": "Trento Expo",
          "website": "https://www.trentoexpo.com",
          "timestamp": "2022-07-01T08:10:02Z"
        }
      },
      {
        "address": "Corso Bettini, 43 - 38068 Rovereto",
        "osm_tags": {}
      },
      {
        "address": "Via Giuseppe Verdi, 6, Trento, 38122 TN",
        "osm_tags": {}
      },
      {
        "address": "Via Giuseppe Verdi, 26, 38122 Trento",
        "osm_tags": {
          "addr:city": "Trento",
          "addr:housenumber": "26",
          "addr:postcode": "38122",
          "addr:street": "Via Giuseppe Verdi",
          "amenity": "university",
          "name": "Dipartimento di Sociologia e Ricerca Sociale",
          "name:en": "Department of Sociology and Social Research",
          "name:it": "Dipartimento di Sociologia e Ricerca Sociale",
          "operator": "Universit\u00e0 degli Studi di Trento",
          "short_name": "Sociologia",
          "website": "https://www.sociologia.unitn.it/",
          "timestamp": "2020-06-26T18:09:30Z"
        }
      },
      {
        "address": "Via Rosmini, 70 - 38122 Trento TN",
        "osm_tags": {
          "highway": "tertiary",
          "name": "Via Antonio Rosmini",
          "parking:condition:right": "ticket",
          "parking:lane:left": "no_parking",
          "parking:lane:right": "marked",
          "short_name": "Via Rosmini",
          "surface": "asphalt",
          "timestamp": "2022-05-28T09:01:09Z"
        }
      },
      {
        "address": "Corso Bettini, 31, Rovereto, 38068 TN",
        "osm_tags": {}
      },
      {
        "address": "Via Giuseppe Verdi, 53, 38122 Trento",
        "osm_tags": {
          "addr:city": "Trento",
          "addr:housenumber": "53",
          "addr:postcode": "38122",
          "addr:street": "Via Giuseppe Verdi",
          "amenity": "university",
          "isced:level": "5",
          "name": "Facolt\u00e0 di Giurisprudenza",
          "name:en": "Faculty of Law",
          "name:it": "Facolt\u00e0 di Giurisprudenza",
          "operator": "Universit\u00e0 degli Studi di Trento",
          "short_name": "Giurisprudenza",
          "website": "https://www.giurisprudenza.unitn.it/",
          "timestamp": "2020-07-06T13:53:04Z"
        }
      },
      {
        "address": "Via Verdi, 53 - 38122 Trento",
        "osm_tags": {
          "highway": "unclassified",
          "maxspeed": "30",
          "name": "Via Verdi",
          "surface": "asphalt",
          "timestamp": "2019-06-21T15:02:16Z"
        }
      },
      {
        "address": "Via Calepina, 14, Trento, TN, Italia",
        "osm_tags": {}
      },
      {
        "address": "Via Sommarive, 14, Povo, 38123 TN",
        "osm_tags": {
          "addr:city": "Povo",
          "addr:housenumber": "14",
          "addr:postcode": "38123",
          "addr:street": "Via Sommarive",
          "alt_name": "Povo 0",
          "amenity": "university",
          "name": "Dipartimenti di Matematica e Fisica",
          "name:en": "Departments of Mathematics and Physics",
          "name:it": "Dipartimenti di Matematica e Fisica",
          "old_name": "Facolt\u00e0 di Scienze M.F.N.",
          "operator": "Universit\u00e0 degli Studi di Trento",
          "website": "https://www.maths.unitn.it/",
          "timestamp": "2022-04-02T21:43:09Z"
        }
      },
      {
        "address": "Via di Briamasco, 2, Trento, 38122 TN",
        "osm_tags": {
          "addr:city": "Trento",
          "addr:housenumber": "2",
          "addr:postcode": "38122",
          "addr:street": "Via di Briamasco",
          "alt_name": "Trento Fiere",
          "amenity": "exhibition_centre",
          "building": "yes",
          "name": "Trento Expo",
          "website": "https://www.trentoexpo.com",
          "timestamp": "2022-07-01T08:10:02Z"
        }
      },
      {
        "address": "Via Giuseppe Verdi, 8, Trento, 38122 TN",
        "osm_tags": {}
      },
      {
        "address": "via Calepina, 14 - 38122 Trento",
        "osm_tags": {}
      },
      {
        "address": "Via Calepina, 14 38122 Trento TN",
        "osm_tags": {}
      },
      {
        "address": "Via Mesiano, 77, 38123 Trento",
        "osm_tags": {
          "addr:city": "Trento",
          "addr:housenumber": "77",
          "addr:postcode": "38123",
          "addr:street": "Via Mesiano",
          "amenity": "university",
          "email": "dicam@unitn.it",
          "name": "Dipartimento di Ingegneria Civile, Ambientale e Meccanica",
          "name:en": "Department of Civil, Environmental and Mechanical Engineering",
          "name:it": "Dipartimento di Ingegneria Civile, Ambientale e Meccanica",
          "operator": "Universit\u00e0 degli Studi di Trento",
          "phone": "+39 0461 281978",
          "website": "https://www.dicam.unitn.it/",
          "timestamp": "2021-09-11T10:09:19Z"
        }
      },
      {
        "address": "Via Giuseppe Verdi, 26, Trento, 38122 TN",
        "osm_tags": {
          "addr:city": "Trento",
          "addr:housenumber": "26",
          "addr:postcode": "38122",
          "addr:street": "Via Giuseppe Verdi",
          "amenity": "university",
          "name": "Dipartimento di Sociologia e Ricerca Sociale",
          "name:en": "Department of Sociology and Social Research",
          "name:it": "Dipartimento di Sociologia e Ricerca Sociale",
          "operator": "Universit\u00e0 degli Studi di Trento",
          "short_name": "Sociologia",
          "website": "https://www.sociologia.unitn.it/",
          "timestamp": "2020-06-26T18:09:30Z"
        }
      },
      {
        "address": "Via delle Regole, 101, Mattarello, TN",
        "osm_tags": {
          "addr:city": "Mattarello",
          "addr:housenumber": "101",
          "addr:postcode": "38123",
          "addr:street": "Via delle Regole",
          "amenity": "university",
          "long_name": "Laboratori di neuroimmagine del Centro Interdipartimentale Mente/Cervello e Centro di Biomedical Technologies",
          "name": "LNiF/CIMeC e BIOtech",
          "operator": "Universit\u00e0 degli Studi di Trento",
          "phone": "+39 0461 283080",
          "website": "http://www.unitn.it/cimec",
          "timestamp": "2020-05-16T20:31:12Z"
        }
      },
      {
        "address": "via S. Maria Maddalena, 1, 38122 Trento",
        "osm_tags": {}
      },
      {
        "address": "Via Sommarive, 5, 38123 TN",
        "osm_tags": {
          "addr:city": "Povo",
          "addr:country": "IT",
          "addr:housenumber": "5",
          "addr:postcode": "38123",
          "addr:street": "Via Sommarive",
          "alt_name": "Povo 1",
          "amenity": "university",
          "contact:instagram": "disi_unitrento",
          "name": "Dipartimento di Ingegneria e Scienza dell'Informazione",
          "name:en": "Department of Information Engineering and Computer Science",
          "name:it": "Dipartimento di Ingegneria e Scienza dell'Informazione",
          "opening_hours": "Mo-Fr 07:40-20:00; Sa 07:40-13:00",
          "operator": "Universit\u00e0 degli Studi di Trento",
          "website": "https://www.disi.unitn.it/",
          "wheelchair": "yes",
          "timestamp": "2022-04-07T11:14:50Z"
        }
      },
      {
        "address": "Via Calepina, 14, Trento, TN",
        "osm_tags": {}
      },
      {
        "address": "Via Vigilio Inama, 5, Trento, 38122 TN",
        "osm_tags": {
          "addr:city": "Trento",
          "addr:housenumber": "5",
          "addr:postcode": "38122",
          "addr:street": "Via Vigilio Inama",
          "amenity": "university",
          "isced:level": "5",
          "name": "Dipartimento di Economia e Management",
          "name:en": "Department of Economics and Management",
          "name:it": "Dipartimento di Economia e Management",
          "operator": "Universit\u00e0 degli Studi di Trento",
          "short_name": "Economia",
          "website": "https://www.economia.unitn.it/",
          "timestamp": "2022-02-07T08:58:38Z"
        }
      },
      {
        "address": "Via Giuseppe Verdi, 53, Trento, 38122 TN",
        "osm_tags": {
          "addr:city": "Trento",
          "addr:housenumber": "53",
          "addr:postcode": "38122",
          "addr:street": "Via Giuseppe Verdi",
          "amenity": "university",
          "isced:level": "5",
          "name": "Facolt\u00e0 di Giurisprudenza",
          "name:en": "Faculty of Law",
          "name:it": "Facolt\u00e0 di Giurisprudenza",
          "operator": "Universit\u00e0 degli Studi di Trento",
          "short_name": "Giurisprudenza",
          "website": "https://www.giurisprudenza.unitn.it/",
          "timestamp": "2020-07-06T13:53:04Z"
        }
      },
      {
        "address": "Via Sommarive, 5, Povo, 38123 TN",
        "osm_tags": {
          "addr:city": "Povo",
          "addr:country": "IT",
          "addr:housenumber": "5",
          "addr:postcode": "38123",
          "addr:street": "Via Sommarive",
          "alt_name": "Povo 1",
          "amenity": "university",
          "contact:instagram": "disi_unitrento",
          "name": "Dipartimento di Ingegneria e Scienza dell'Informazione",
          "name:en": "Department of Information Engineering and Computer Science",
          "name:it": "Dipartimento di Ingegneria e Scienza dell'Informazione",
          "opening_hours": "Mo-Fr 07:40-20:00; Sa 07:40-13:00",
          "operator": "Universit\u00e0 degli Studi di Trento",
          "website": "https://www.disi.unitn.it/",
          "wheelchair": "yes",
          "timestamp": "2022-04-07T11:14:50Z"
        }
      },
      {
        "address": "Via Antonio Rosmini, 70, Trento, TN",
        "osm_tags": {
          "addr:city": "Lavis",
          "addr:housenumber": "70",
          "addr:postcode": "38015",
          "addr:street": "Via Antonio Rosmini",
          "building": "yes",
          "healthcare": "centre",
          "name": "Poliambulatori",
          "timestamp": "2020-05-18T06:32:10Z"
        }
      },
      {
        "address": "Via Edmund Mach, 1, 38010 San Michele All'adige TN",
        "osm_tags": {}
      },
      {
        "address": "Via Tomaso Gar, 14, Trento, 38122 TN",
        "osm_tags": {}
      },
      {
        "address": "Via Antonio Rosmini, 70, Trento, 38122 TN",
        "osm_tags": {
          "highway": "tertiary",
          "lanes": "2",
          "name": "Via Antonio Rosmini",
          "parking:lane:both": "no_parking",
          "parking:lane:left": "no_parking",
          "parking:lane:right": "no_parking",
          "surface": "paved",
          "timestamp": "2022-09-20T06:56:01Z"
        }
      },
      {
        "address": "Via Sommarive, 14, 38123 Povo TN",
        "osm_tags": {
          "addr:city": "Povo",
          "addr:housenumber": "14",
          "addr:postcode": "38123",
          "addr:street": "Via Sommarive",
          "alt_name": "Povo 0",
          "amenity": "university",
          "name": "Dipartimenti di Matematica e Fisica",
          "name:en": "Departments of Mathematics and Physics",
          "name:it": "Dipartimenti di Matematica e Fisica",
          "old_name": "Facolt\u00e0 di Scienze M.F.N.",
          "operator": "Universit\u00e0 degli Studi di Trento",
          "website": "https://www.maths.unitn.it/",
          "timestamp": "2022-04-02T21:43:09Z"
        }
      },
      {
        "address": "Corso Bettini, 84, Rovereto, 38068 TN",
        "osm_tags": {
          "highway": "residential",
          "lit": "yes",
          "maxspeed": "30",
          "name": "Corso Bettini",
          "surface": "asphalt",
          "timestamp": "2020-07-25T18:43:54Z"
        }
      },
      {
        "address": "Via Adalberto Libera, 3, Trento, TN",
        "osm_tags": {
          "addr:city": "Trento",
          "addr:housenumber": "3",
          "addr:postcode": "38122",
          "addr:street": "Via Adalberto Libera",
          "alt_name": "Central Library",
          "amenity": "library",
          "building": "university",
          "fixme": "position",
          "name": "BUC - Biblioteca Universitaria Centrale",
          "name:en": "Central University Library",
          "opening_hours": "Mo-Sa 08:00-23:45; Su 14:00-20:45",
          "phone": "+39 0461 283011",
          "website": "https://www.biblioteca.unitn.it/buc-biblioteca-universitaria-centrale",
          "wheelchair": "yes",
          "timestamp": "2021-10-29T21:38:05Z"
        }
      },
      {
        "address": "Via M. del Ben, 5b, Rovereto, 38068 TN",
        "osm_tags": {}
      },
      {
        "address": "Via Sommarive, 9, Povo, 38123 TN",
        "osm_tags": {}
      },
      {
        "address": "Via di Briamasco, 20, Trento, TN",
        "osm_tags": {
          "highway": "unclassified",
          "name": "Via di Briamasco",
          "oneway": "yes",
          "surface": "asphalt",
          "timestamp": "2022-04-24T08:29:52Z"
        }
      },
      {
        "address": "Via Tommaso Gar, 16/2 - 38122 Trento",
        "osm_tags": {
          "highway": "unclassified",
          "maxspeed": "50",
          "name": "Via Tommaso Gar",
          "parking:condition:left": "disc",
          "parking:condition:right": "ticket",
          "parking:lane:left": "parallel",
          "parking:lane:right": "parallel",
          "source:maxspeed": "sign",
          "surface": "asphalt",
          "timestamp": "2021-01-24T14:12:13Z"
        }
      },
      {
        "address": "Via Giuseppe Verdi, 6, Trento, TN",
        "osm_tags": {}
      }
    ]
  }
}